[{"OBJECT_NAME":"TIANHUI 2-01A","OBJECT_ID":"2019-024A","EPOCH":"2026-03-09T12:59:11.452128","MEAN_MOTION":15.16798964,"ECCENTRICITY":0.0001542,"INCLINATION":97.4822,"RA_OF_ASC_NODE":73.7961,"ARG_OF_PERICENTER":95.9688,"MEAN_ANOMALY":264.172,"EPHEMERIS_TYPE":0,"CLASSIFICATION_TYPE":"U","NORAD_CAT_ID":44207,"ELEMENT_SET_NO":999,"REV_AT_EPOCH":8703,"BSTAR":0.00014721,"MEAN_MOTION_DOT":2.825e-5,"MEAN_MOTION_DDOT":0},{"OBJECT_NAME":"STARLINK-5509","OBJECT_ID":"2023-094AX","EPOCH":"2026-03-09T22:00:01.999584","MEAN_MOTION":15.13845843,"ECCENTRICITY":0.00013943,"INCLINATION":43.0003,"RA_OF_ASC_NODE":28.4661,"ARG_OF_PERICENTER":253.5777,"MEAN_ANOMALY":28.6341,"EPHEMERIS_TYPE":0,"CLASSIFICATION_TYPE":"U","NORAD_CAT_ID":57263,"ELEMENT_SET_NO":999,"REV_AT_EPOCH":577,"BSTAR":0.0043906245,"MEAN_MOTION_DOT":0.00081487,"MEAN_MOTION_DDOT":0}]
